CCSDS_OMM_VERS = 2.0
CREATION_DATE  = 
ORIGINATOR     = 

OBJECT_NAME    = IDEFIX & ARIANE 42P R/B
OBJECT_ID      = 2002-021B
CENTER_NAME    = EARTH
REF_FRAME      = TEME
TIME_SYSTEM    = UTC
MEAN_ELEMENT_THEORY = SGP/SGP4

EPOCH          = 2026-03-05T17:17:03.676416
MEAN_MOTION    = 14.31022919
ECCENTRICITY   = .0011343
INCLINATION    = 98.5866
RA_OF_ASC_NODE = 3.3740
ARG_OF_PERICENTER = 194.0725
MEAN_ANOMALY   = 166.0144

EPHEMERIS_TYPE = 0
CLASSIFICATION_TYPE = U
NORAD_CAT_ID   = 27422
ELEMENT_SET_NO = 999
REV_AT_EPOCH   = 24345
BSTAR          = .17513E-3
MEAN_MOTION_DOT = .417E-5
MEAN_MOTION_DDOT = 0

CCSDS_OMM_VERS = 2.0
CREATION_DATE  = 
ORIGINATOR     = 

OBJECT_NAME    = AQUA
OBJECT_ID      = 2002-022A
CENTER_NAME    = EARTH
REF_FRAME      = TEME
TIME_SYSTEM    = UTC
MEAN_ELEMENT_THEORY = SGP/SGP4

EPOCH          = 2026-03-05T20:15:41.203296
MEAN_MOTION    = 14.61966367
ECCENTRICITY   = .0000604
INCLINATION    = 98.4169
RA_OF_ASC_NODE = 32.1392
ARG_OF_PERICENTER = 63.3883
MEAN_ANOMALY   = 317.6242

EPHEMERIS_TYPE = 0
CLASSIFICATION_TYPE = U
NORAD_CAT_ID   = 27424
ELEMENT_SET_NO = 999
REV_AT_EPOCH   = 26817
BSTAR          = .3191E-3
MEAN_MOTION_DOT = .1549E-4
MEAN_MOTION_DDOT = 0

CCSDS_OMM_VERS = 2.0
CREATION_DATE  = 
ORIGINATOR     = 

OBJECT_NAME    = CZ-4B R/B
OBJECT_ID      = 2002-024C
CENTER_NAME    = EARTH
REF_FRAME      = TEME
TIME_SYSTEM    = UTC
MEAN_ELEMENT_THEORY = SGP/SGP4

EPOCH          = 2026-03-05T18:25:14.604960
MEAN_MOTION    = 14.14546933
ECCENTRICITY   = .0050668
INCLINATION    = 98.8846
RA_OF_ASC_NODE = 118.1938
ARG_OF_PERICENTER = 35.2596
MEAN_ANOMALY   = 74.8182

EPHEMERIS_TYPE = 0
CLASSIFICATION_TYPE = U
NORAD_CAT_ID   = 27432
ELEMENT_SET_NO = 999
REV_AT_EPOCH   = 22868
BSTAR          = .60568E-4
MEAN_MOTION_DOT = .73E-6
MEAN_MOTION_DDOT = 0

CCSDS_OMM_VERS = 2.0
CREATION_DATE  = 
ORIGINATOR     = 

OBJECT_NAME    = MIDORI II (ADEOS-II)
OBJECT_ID      = 2002-056A
CENTER_NAME    = EARTH
REF_FRAME      = TEME
TIME_SYSTEM    = UTC
MEAN_ELEMENT_THEORY = SGP/SGP4

EPOCH          = 2026-03-05T19:31:20.484192
MEAN_MOTION    = 14.29281648
ECCENTRICITY   = .000174
INCLINATION    = 98.7764
RA_OF_ASC_NODE = 23.2644
ARG_OF_PERICENTER = 48.1718
MEAN_ANOMALY   = 311.9612

EPHEMERIS_TYPE = 0
CLASSIFICATION_TYPE = U
NORAD_CAT_ID   = 27597
ELEMENT_SET_NO = 999
REV_AT_EPOCH   = 20974
BSTAR          = .19193E-3
MEAN_MOTION_DOT = .443E-5
MEAN_MOTION_DDOT = 0

CCSDS_OMM_VERS = 2.0
CREATION_DATE  = 
ORIGINATOR     = 

OBJECT_NAME    = H-2A R/B
OBJECT_ID      = 2002-056E
CENTER_NAME    = EARTH
REF_FRAME      = TEME
TIME_SYSTEM    = UTC
MEAN_ELEMENT_THEORY = SGP/SGP4

EPOCH          = 2026-03-05T20:49:38.846208
MEAN_MOTION    = 14.33757912
ECCENTRICITY   = .007027
INCLINATION    = 98.3197
RA_OF_ASC_NODE = 25.3790
ARG_OF_PERICENTER = 172.0112
MEAN_ANOMALY   = 242.7391

EPHEMERIS_TYPE = 0
CLASSIFICATION_TYPE = U
NORAD_CAT_ID   = 27601
ELEMENT_SET_NO = 999
REV_AT_EPOCH   = 21356
BSTAR          = .14985E-3
MEAN_MOTION_DOT = .386E-5
MEAN_MOTION_DDOT = 0

CCSDS_OMM_VERS = 2.0
CREATION_DATE  = 
ORIGINATOR     = 

OBJECT_NAME    = CZ-4B R/B
OBJECT_ID      = 2003-049C
CENTER_NAME    = EARTH
REF_FRAME      = TEME
TIME_SYSTEM    = UTC
MEAN_ELEMENT_THEORY = SGP/SGP4

EPOCH          = 2026-03-05T14:25:50.921184
MEAN_MOTION    = 14.55015808
ECCENTRICITY   = .0047109
INCLINATION    = 98.6876
RA_OF_ASC_NODE = 59.3457
ARG_OF_PERICENTER = 243.6440
MEAN_ANOMALY   = 115.9914

EPHEMERIS_TYPE = 0
CLASSIFICATION_TYPE = U
NORAD_CAT_ID   = 28059
ELEMENT_SET_NO = 999
REV_AT_EPOCH   = 18600
BSTAR          = .14424E-3
MEAN_MOTION_DOT = .578E-5
MEAN_MOTION_DDOT = 0

CCSDS_OMM_VERS = 2.0
CREATION_DATE  = 
ORIGINATOR     = 

OBJECT_NAME    = CZ-2C R/B
OBJECT_ID      = 2004-012C
CENTER_NAME    = EARTH
REF_FRAME      = TEME
TIME_SYSTEM    = UTC
MEAN_ELEMENT_THEORY = SGP/SGP4

EPOCH          = 2026-03-05T16:57:53.787456
MEAN_MOTION    = 15.63957569
ECCENTRICITY   = .001326
INCLINATION    = 97.7239
RA_OF_ASC_NODE = 129.6237
ARG_OF_PERICENTER = 325.7396
MEAN_ANOMALY   = 34.3005

EPHEMERIS_TYPE = 0
CLASSIFICATION_TYPE = U
NORAD_CAT_ID   = 28222
ELEMENT_SET_NO = 999
REV_AT_EPOCH   = 20365
BSTAR          = .63753E-3
MEAN_MOTION_DOT = .60471E-3
MEAN_MOTION_DDOT = 0

CCSDS_OMM_VERS = 2.0
CREATION_DATE  = 
ORIGINATOR     = 

OBJECT_NAME    = SL-16 R/B
OBJECT_ID      = 2004-021B
CENTER_NAME    = EARTH
REF_FRAME      = TEME
TIME_SYSTEM    = UTC
MEAN_ELEMENT_THEORY = SGP/SGP4

EPOCH          = 2026-03-05T17:01:19.046208
MEAN_MOTION    = 14.14599191
ECCENTRICITY   = .0003813
INCLINATION    = 70.9992
RA_OF_ASC_NODE = 240.8460
ARG_OF_PERICENTER = 17.1566
MEAN_ANOMALY   = 342.9684

EPHEMERIS_TYPE = 0
CLASSIFICATION_TYPE = U
NORAD_CAT_ID   = 28353
ELEMENT_SET_NO = 999
REV_AT_EPOCH   = 12227
BSTAR          = -.7575E-4
MEAN_MOTION_DOT = -.193E-5
MEAN_MOTION_DDOT = 0

CCSDS_OMM_VERS = 2.0
CREATION_DATE  = 
ORIGINATOR     = 

OBJECT_NAME    = CZ-4B R/B
OBJECT_ID      = 2004-035C
CENTER_NAME    = EARTH
REF_FRAME      = TEME
TIME_SYSTEM    = UTC
MEAN_ELEMENT_THEORY = SGP/SGP4

EPOCH          = 2026-03-05T15:43:48.173088
MEAN_MOTION    = 15.28976588
ECCENTRICITY   = .0031407
INCLINATION    = 97.3499
RA_OF_ASC_NODE = 98.9460
ARG_OF_PERICENTER = 346.2281
MEAN_ANOMALY   = 13.8099

EPHEMERIS_TYPE = 0
CLASSIFICATION_TYPE = U
NORAD_CAT_ID   = 28415
ELEMENT_SET_NO = 999
REV_AT_EPOCH   = 17929
BSTAR          = .35106E-3
MEAN_MOTION_DOT = .9952E-4
MEAN_MOTION_DDOT = 0

CCSDS_OMM_VERS = 2.0
CREATION_DATE  = 
ORIGINATOR     = 

OBJECT_NAME    = CZ-2C R/B
OBJECT_ID      = 2004-046B
CENTER_NAME    = EARTH
REF_FRAME      = TEME
TIME_SYSTEM    = UTC
MEAN_ELEMENT_THEORY = SGP/SGP4

EPOCH          = 2026-03-05T16:46:46.512480
MEAN_MOTION    = 14.26990485
ECCENTRICITY   = .0139651
INCLINATION    = 98.1986
RA_OF_ASC_NODE = 339.9313
ARG_OF_PERICENTER = 166.2060
MEAN_ANOMALY   = 194.3000

EPHEMERIS_TYPE = 0
CLASSIFICATION_TYPE = U
NORAD_CAT_ID   = 28480
ELEMENT_SET_NO = 999
REV_AT_EPOCH   = 10793
BSTAR          = .74447E-4
MEAN_MOTION_DOT = .16E-5
MEAN_MOTION_DDOT = 0

CCSDS_OMM_VERS = 2.0
CREATION_DATE  = 
ORIGINATOR     = 

OBJECT_NAME    = ARIANE 5 R/B
OBJECT_ID      = 2004-049H
CENTER_NAME    = EARTH
REF_FRAME      = TEME
TIME_SYSTEM    = UTC
MEAN_ELEMENT_THEORY = SGP/SGP4

EPOCH          = 2026-03-05T10:56:23.359488
MEAN_MOTION    = 14.85257082
ECCENTRICITY   = .0084239
INCLINATION    = 98.2618
RA_OF_ASC_NODE = 232.7545
ARG_OF_PERICENTER = 5.6646
MEAN_ANOMALY   = 354.5500

EPHEMERIS_TYPE = 0
CLASSIFICATION_TYPE = U
NORAD_CAT_ID   = 28499
ELEMENT_SET_NO = 999
REV_AT_EPOCH   = 14516
BSTAR          = .13087E-3
MEAN_MOTION_DOT = .1132E-4
MEAN_MOTION_DDOT = 0

CCSDS_OMM_VERS = 2.0
CREATION_DATE  = 
ORIGINATOR     = 

OBJECT_NAME    = CZ-2D R/B
OBJECT_ID      = 2005-024B
CENTER_NAME    = EARTH
REF_FRAME      = TEME
TIME_SYSTEM    = UTC
MEAN_ELEMENT_THEORY = SGP/SGP4

EPOCH          = 2026-03-05T14:29:38.793408
MEAN_MOTION    = 15.59717553
ECCENTRICITY   = .0006429
INCLINATION    = 97.3595
RA_OF_ASC_NODE = 79.6011
ARG_OF_PERICENTER = 57.0193
MEAN_ANOMALY   = 303.1681

EPHEMERIS_TYPE = 0
CLASSIFICATION_TYPE = U
NORAD_CAT_ID   = 28738
ELEMENT_SET_NO = 999
REV_AT_EPOCH   = 13914
BSTAR          = .57191E-3
MEAN_MOTION_DOT = .45815E-3
MEAN_MOTION_DDOT = 0

